{"type": "FeatureCollection", "features": [ {"type": "Feature", "properties": {"norad_id": 44804, "name": "CARTOSAT-3", "group": "resource", "lat": 40.11067010497879, "lon": -120.7904525127787, "alt_km": 502.9822605690633, "timestamp": "2025-12-19T08:58:48.995197+00:00", "meta": {"OBJECT_NAME": "CARTOSAT-3", "OBJECT_ID": "2019-081A", "EPOCH": "2025-12-18T22:53:07.374048", "MEAN_MOTION": 15.1920267, "ECCENTRICITY": 0.00140314, "INCLINATION": 97.4585, "RA_OF_ASC_NODE": 52.4582, "ARG_OF_PERICENTER": 63.9396, "MEAN_ANOMALY": 296.3281, "EPHEMERIS_TYPE": 0, "CLASSIFICATION_TYPE": "U", "NORAD_CAT_ID": 44804, "ELEMENT_SET_NO": 999, "REV_AT_EPOCH": 33610, "BSTAR": 0.00016641685, "MEAN_MOTION_DOT": 3.442e-05, "MEAN_MOTION_DDOT": 0}, "tle": {"line1": "1 44804U 19081A   25352.95355757  .00003442  00000+0  16642-3 0  9996", "line2": "2 44804  97.4585  52.4582 0014031  63.9396 296.3281 15.19202670336108"}}, "geometry": {"type": "Point", "coordinates": [-120.7904525127787, 40.11067010497879]}}, {"type": "Feature", "properties": {"norad_id": 44819, "name": "GAOFEN-12 01", "group": "resource", "lat": 43.81276473348071, "lon": -8.08799679697978, "alt_km": 624.6647460140039, "timestamp": "2025-12-19T08:58:48.995207+00:00", "meta": {"OBJECT_NAME": "GAOFEN-12 01", "OBJECT_ID": "2019-082A", "EPOCH": "2025-12-18T23:02:57.719328", "MEAN_MOTION": 14.80664475, "ECCENTRICITY": 0.00017182, "INCLINATION": 97.8124, "RA_OF_ASC_NODE": 359.0781, "ARG_OF_PERICENTER": 201.4078, "MEAN_ANOMALY": 158.7063, "EPHEMERIS_TYPE": 0, "CLASSIFICATION_TYPE": "U", "NORAD_CAT_ID": 44819, "ELEMENT_SET_NO": 999, "REV_AT_EPOCH": 32742, "BSTAR": 5.7341503e-05, "MEAN_MOTION_DOT": 3.9e-06, "MEAN_MOTION_DDOT": 0}, "tle": {"line1": "1 44819U 19082A   25352.96039027  .00000390  00000+0  57342-4 0  9995", "line2": "2 44819  97.8124 359.0781 0001718 201.4078 158.7063 14.80664475327424"}}, "geometry": {"type": "Point", "coordinates": [-8.08799679697978, 43.81276473348071]}}, {"type": "Feature", "properties": {"norad_id": 44873, "name": "CSG-1", "group": "resource", "lat": -11.037283872126382, "lon": -6.949872459188426, "alt_km": 627.1835765573978, "timestamp": "2025-12-19T08:58:48.995217+00:00", "meta": {"OBJECT_NAME": "CSG-1", "OBJECT_ID": "2019-092A", "EPOCH": "2025-12-18T22:23:58.831584", "MEAN_MOTION": 14.8214854, "ECCENTRICITY": 0.00014941, "INCLINATION": 97.8803, "RA_OF_ASC_NODE": 174.1642, "ARG_OF_PERICENTER": 86.2334, "MEAN_ANOMALY": 273.905, "EPHEMERIS_TYPE": 0, "CLASSIFICATION_TYPE": "U", "NORAD_CAT_ID": 44873, "ELEMENT_SET_NO": 999, "REV_AT_EPOCH": 32477, "BSTAR": 6.2751795e-05, "MEAN_MOTION_DOT": 4.47e-06, "MEAN_MOTION_DDOT": 0}, "tle": {"line1": "1 44873U 19092A   25352.93331981  .00000447  00000+0  62752-4 0  9991", "line2": "2 44873  97.8803 174.1642 0001494  86.2334 273.9050 14.82148540324778"}}, "geometry": {"type": "Point", "coordinates": [-6.949872459188426, -11.037283872126382]}}, {"type": "Feature", "properties": {"norad_id": 46277, "name": "NEMO-HD", "group": "resource", "lat": -60.79626504641025, "lon": 65.4986061259192, "alt_km": 452.3347051955179, "timestamp": "2025-12-19T08:58:48.995227+00:00", "meta": {"OBJECT_NAME": "NEMO-HD", "OBJECT_ID": "2020-061F", "EPOCH": "2025-12-18T22:20:03.883200", "MEAN_MOTION": 15.40451562, "ECCENTRICITY": 0.00014944, "INCLINATION": 97.2208, "RA_OF_ASC_NODE": 51.9503, "ARG_OF_PERICENTER": 51.9701, "MEAN_ANOMALY": 308.1681, "EPHEMERIS_TYPE": 0, "CLASSIFICATION_TYPE": "U", "NORAD_CAT_ID": 46277, "ELEMENT_SET_NO": 999, "REV_AT_EPOCH": 29419, "BSTAR": 0.00021374673, "MEAN_MOTION_DOT": 8.574e-05, "MEAN_MOTION_DDOT": 0}, "tle": {"line1": "1 46277U 20061F   25352.93060050  .00008574  00000+0  21375-3 0  9999", "line2": "2 46277  97.2208  51.9503 0001494  51.9701 308.1681 15.40451562294195"}}, "geometry": {"type": "Point", "coordinates": [65.4986061259192, -60.79626504641025]}}, {"type": "Feature", "properties": {"norad_id": 46984, "name": "SENTINEL-6A", "group": "resource", "lat": 66.02700235568437, "lon": -121.82134693102347, "alt_km": 1336.3762408200391, "timestamp": "2025-12-19T08:58:48.995238+00:00", "meta": {"OBJECT_NAME": "SENTINEL-6A", "OBJECT_ID": "2020-086A", "EPOCH": "2025-12-18T19:23:45.140640", "MEAN_MOTION": 12.80930819, "ECCENTRICITY": 0.00077124, "INCLINATION": 66.0392, "RA_OF_ASC_NODE": 149.7036, "ARG_OF_PERICENTER": 269.2651, "MEAN_ANOMALY": 90.748, "EPHEMERIS_TYPE": 0, "CLASSIFICATION_TYPE": "U", "NORAD_CAT_ID": 46984, "ELEMENT_SET_NO": 999, "REV_AT_EPOCH": 23722, "BSTAR": 1.538222e-06, "MEAN_MOTION_DOT": -6.1e-07, "MEAN_MOTION_DDOT": 0}, "tle": {"line1": "1 46984U 20086A   25352.80816135 -.00000061  00000+0  15382-5 0  9997", "line2": "2 46984  66.0392 149.7036 0007712 269.2651  90.7480 12.80930819237222"}}, "geometry": {"type": "Point", "coordinates": [-121.82134693102347, 66.02700235568437]}}, {"type": "Feature", "properties": {"norad_id": 48079, "name": "GAOFEN-12 02", "group": "resource", "lat": 55.331641270846085, "lon": -24.36177707371425, "alt_km": 619.7558201382017, "timestamp": "2025-12-19T08:58:48.995248+00:00", "meta": {"OBJECT_NAME": "GAOFEN-12 02", "OBJECT_ID": "2021-026A", "EPOCH": "2025-12-18T22:59:47.394816", "MEAN_MOTION": 14.80682456, "ECCENTRICITY": 0.0003598, "INCLINATION": 97.9853, "RA_OF_ASC_NODE": 346.9346, "ARG_OF_PERICENTER": 88.7178, "MEAN_ANOMALY": 271.4447, "EPHEMERIS_TYPE": 0, "CLASSIFICATION_TYPE": "U", "NORAD_CAT_ID": 48079, "ELEMENT_SET_NO": 999, "REV_AT_EPOCH": 25509, "BSTAR": 5.85576e-05, "MEAN_MOTION_DOT": 3.97e-06, "MEAN_MOTION_DDOT": 0}, "tle": {"line1": "1 48079U 21026A   25352.95818744  .00000397  00000+0  58558-4 0  9995", "line2": "2 48079  97.9853 346.9346 0003598  88.7178 271.4447 14.80682456255094"}}, "geometry": {"type": "Point", "coordinates": [-24.36177707371425, 55.331641270846085]}}, {"type": "Feature", "properties": {"norad_id": 48268, "name": "PLEIADES NEO 3", "group": "resource", "lat": 32.6949208381778, "lon": -109.16968527685492, "alt_km": 621.6500927888355, "timestamp": "2025-12-19T08:58:48.995258+00:00", "meta": {"OBJECT_NAME": "PLEIADES NEO 3", "OBJECT_ID": "2021-034A", "EPOCH": "2025-12-18T22:35:42.322848", "MEAN_MOTION": 14.81670918, "ECCENTRICITY": 0.00013132, "INCLINATION": 97.895, "RA_OF_ASC_NODE": 65.2938, "ARG_OF_PERICENTER": 88.9953, "MEAN_ANOMALY": 271.141, "EPHEMERIS_TYPE": 0, "CLASSIFICATION_TYPE": "U", "NORAD_CAT_ID": 48268, "ELEMENT_SET_NO": 999, "REV_AT_EPOCH": 25096, "BSTAR": 7.2454743e-05, "MEAN_MOTION_DOT": 5.18e-06, "MEAN_MOTION_DDOT": 0}, "tle": {"line1": "1 48268U 21034A   25352.94146207  .00000518  00000+0  72455-4 0  9998", "line2": "2 48268  97.8950  65.2938 0001313  88.9953 271.1410 14.81670918250964"}}, "geometry": {"type": "Point", "coordinates": [-109.16968527685492, 32.6949208381778]}}, {"type": "Feature", "properties": {"norad_id": 49070, "name": "PLEIADES NEO 4", "group": "resource", "lat": -32.85061172961285, "lon": 70.85700219619825, "alt_km": 630.7070076549207, "timestamp": "2025-12-19T08:58:48.995268+00:00", "meta": {"OBJECT_NAME": "PLEIADES NEO 4", "OBJECT_ID": "2021-073E", "EPOCH": "2025-12-18T23:24:18.654624", "MEAN_MOTION": 14.81674118, "ECCENTRICITY": 0.00013025, "INCLINATION": 97.8951, "RA_OF_ASC_NODE": 65.323, "ARG_OF_PERICENTER": 91.754, "MEAN_ANOMALY": 268.3822, "EPHEMERIS_TYPE": 0, "CLASSIFICATION_TYPE": "U", "NORAD_CAT_ID": 49070, "ELEMENT_SET_NO": 999, "REV_AT_EPOCH": 23468, "BSTAR": 6.0813433e-05, "MEAN_MOTION_DOT": 4.27e-06, "MEAN_MOTION_DDOT": 0}, "tle": {"line1": "1 49070U 21073E   25352.97521591  .00000427  00000+0  60813-4 0  9993", "line2": "2 49070  97.8951  65.3230 0001302  91.7540 268.3822 14.81674118234687"}}, "geometry": {"type": "Point", "coordinates": [70.85700219619825, -32.85061172961285]}}, {"type": "Feature", "properties": {"norad_id": 49260, "name": "LANDSAT 9", "group": "resource", "lat": 61.11651317810182, "lon": -103.44170834770114, "alt_km": 695.8935685780407, "timestamp": "2025-12-19T08:58:48.995278+00:00", "meta": {"OBJECT_NAME": "LANDSAT 9", "OBJECT_ID": "2021-088A", "EPOCH": "2025-12-18T19:15:26.256672", "MEAN_MOTION": 14.57104014, "ECCENTRICITY": 0.00011198, "INCLINATION": 98.2088, "RA_OF_ASC_NODE": 60.8254, "ARG_OF_PERICENTER": 90.791, "MEAN_ANOMALY": 269.3417, "EPHEMERIS_TYPE": 0, "CLASSIFICATION_TYPE": "U", "NORAD_CAT_ID": 49260, "ELEMENT_SET_NO": 999, "REV_AT_EPOCH": 22473, "BSTAR": 8.4274008e-05, "MEAN_MOTION_DOT": 3.34e-06, "MEAN_MOTION_DDOT": 0}, "tle": {"line1": "1 49260U 21088A   25352.80238723  .00000334  00000+0  84274-4 0  9998", "line2": "2 49260  98.2088  60.8254 0001119  90.7910 269.3417 14.57104014224738"}}, "geometry": {"type": "Point", "coordinates": [-103.44170834770114, 61.11651317810182]}}, {"type": "Feature", "properties": {"norad_id": 51444, "name": "CSG-2", "group": "resource", "lat": 10.780770229529121, "lon": 173.08541694474258, "alt_km": 623.7276368351959, "timestamp": "2025-12-19T08:58:48.995288+00:00", "meta": {"OBJECT_NAME": "CSG-2", "OBJECT_ID": "2022-008A", "EPOCH": "2025-12-18T23:12:35.142624", "MEAN_MOTION": 14.82150145, "ECCENTRICITY": 0.00014726, "INCLINATION": 97.8799, "RA_OF_ASC_NODE": 174.1958, "ARG_OF_PERICENTER": 83.4994, "MEAN_ANOMALY": 276.6387, "EPHEMERIS_TYPE": 0, "CLASSIFICATION_TYPE": "U", "NORAD_CAT_ID": 51444, "ELEMENT_SET_NO": 999, "REV_AT_EPOCH": 20989, "BSTAR": 3.4827533e-05, "MEAN_MOTION_DOT": 2.25e-06, "MEAN_MOTION_DDOT": 0}, "tle": {"line1": "1 51444U 22008A   25352.96707341  .00000225  00000+0  34828-4 0  9991", "line2": "2 51444  97.8799 174.1958 0001472  83.4994 276.6387 14.82150145209893"}}, "geometry": {"type": "Point", "coordinates": [173.08541694474258, 10.780770229529121]}}]}